start=new Date('2022-06-30T00:00:00.000Z').valueOf();
sats=[{"MEAN_MOTION_DOT":"-0.00052348","OBJECT_NAME":"STARLINK-3587","BSTAR":"-0.00329190000000","CLASSIFICATION_TYPE":"U","REF_FRAME":"TEME","ECCENTRICITY":"0.00020620","PERIOD":"95.435","MEAN_MOTION_DDOT":"0.0000000000000","NORAD_CAT_ID":"51892","FILE":"3505610","CENTER_NAME":"EARTH","MEAN_MOTION":"15.08873684","SITE":"AFETR","TLE_LINE2":"2 51892  53.2188 293.9884 0002062  45.0001  19.1104 15.08873684  1307","TLE_LINE1":"1 51892U 22022AS  22180.91667824 -.00052348  00000-0 -32919-2 0  9999","MEAN_ANOMALY":"19.1104","OBJECT_ID":"2022-022AS","PERIAPSIS":"538.216","DECAY_DATE":null,"ELEMENT_SET_NO":"999","EPHEMERIS_TYPE":"0","EPOCH":"2022-06-29T22:00:00.999936","LAUNCH_DATE":"2022-03-03","OBJECT_TYPE":"PAYLOAD","RA_OF_ASC_NODE":"293.9884","TIME_SYSTEM":"UTC","COUNTRY_CODE":"US","MEAN_ELEMENT_THEORY":"SGP4","APOAPSIS":"541.069","RCS_SIZE":"LARGE","INCLINATION":"53.2188","SEMIMAJOR_AXIS":"6917.777","GP_ID":"207121422","ARG_OF_PERICENTER":"45.0001","REV_AT_EPOCH":"130"},{"INCLINATION":"53.2164","RCS_SIZE":"LARGE","APOAPSIS":"540.571","MEAN_ELEMENT_THEORY":"SGP4","COUNTRY_CODE":"US","LAUNCH_DATE":"2022-03-03","OBJECT_TYPE":"PAYLOAD","RA_OF_ASC_NODE":"293.9813","TIME_SYSTEM":"UTC","EPOCH":"2022-06-29T22:00:00.999936","ELEMENT_SET_NO":"999","EPHEMERIS_TYPE":"0","REV_AT_EPOCH":"130","ARG_OF_PERICENTER":"52.1821","SEMIMAJOR_AXIS":"6917.856","GP_ID":"207120672","FILE":"3505610","NORAD_CAT_ID":"51893","CENTER_NAME":"EARTH","PERIOD":"95.437","MEAN_MOTION_DDOT":"0.0000000000000","ECCENTRICITY":"0.00012290","BSTAR":"-0.00131070000000","CLASSIFICATION_TYPE":"U","REF_FRAME":"TEME","OBJECT_NAME":"STARLINK-3579","MEAN_MOTION_DOT":"-0.00021091","PERIAPSIS":"538.871","DECAY_DATE":null,"OBJECT_ID":"2022-022AT","MEAN_ANOMALY":"91.8530","TLE_LINE1":"1 51893U 22022AT  22180.91667824 -.00021091  00000-0 -13107-2 0  9999","TLE_LINE2":"2 51893  53.2164 293.9813 0001229  52.1821  91.8530 15.08848060  1307","SITE":"AFETR","MEAN_MOTION":"15.08848060"},{"SEMIMAJOR_AXIS":"6917.872","GP_ID":"207120922","ARG_OF_PERICENTER":"48.7815","REV_AT_EPOCH":"130","ELEMENT_SET_NO":"999","EPHEMERIS_TYPE":"0","EPOCH":"2022-06-29T22:00:00.999936","LAUNCH_DATE":"2022-03-03","OBJECT_TYPE":"PAYLOAD","TIME_SYSTEM":"UTC","RA_OF_ASC_NODE":"293.9827","COUNTRY_CODE":"US","MEAN_ELEMENT_THEORY":"SGP4","APOAPSIS":"540.902","INCLINATION":"53.2168","RCS_SIZE":"LARGE","SITE":"AFETR","MEAN_MOTION":"15.08842709","TLE_LINE2":"2 51894  53.2168 293.9827 0001684  48.7815  75.2314 15.08842709  1306","TLE_LINE1":"1 51894U 22022AU  22180.91667824 -.00021013  00000-0 -13059-2 0  9990","MEAN_ANOMALY":"75.2314","OBJECT_ID":"2022-022AU","PERIAPSIS":"538.572","DECAY_DATE":null,"MEAN_MOTION_DOT":"-0.00021013","OBJECT_NAME":"STARLINK-3595","BSTAR":"-0.00130590000000","CLASSIFICATION_TYPE":"U","REF_FRAME":"TEME","ECCENTRICITY":"0.00016840","PERIOD":"95.437","MEAN_MOTION_DDOT":"0.0000000000000","FILE":"3505610","NORAD_CAT_ID":"51894","CENTER_NAME":"EARTH"},{"REV_AT_EPOCH":"130","ARG_OF_PERICENTER":"44.0501","GP_ID":"207121672","SEMIMAJOR_AXIS":"6917.881","APOAPSIS":"540.829","RCS_SIZE":"LARGE","INCLINATION":"53.2162","MEAN_ELEMENT_THEORY":"SGP4","LAUNCH_DATE":"2022-03-03","OBJECT_TYPE":"PAYLOAD","TIME_SYSTEM":"UTC","RA_OF_ASC_NODE":"293.9809","COUNTRY_CODE":"US","ELEMENT_SET_NO":"999","EPHEMERIS_TYPE":"0","EPOCH":"2022-06-29T22:00:00.999936","OBJECT_ID":"2022-022AV","MEAN_ANOMALY":"120.1038","PERIAPSIS":"538.663","DECAY_DATE":null,"TLE_LINE2":"2 51895  53.2162 293.9809 0001566  44.0501 120.1038 15.08839753  1309","TLE_LINE1":"1 51895U 22022AV  22180.91667824 -.00021157  00000-0 -13151-2 0  9993","SITE":"AFETR","MEAN_MOTION":"15.08839753","FILE":"3505610","CENTER_NAME":"EARTH","NORAD_CAT_ID":"51895","ECCENTRICITY":"0.00015660","PERIOD":"95.438","MEAN_MOTION_DDOT":"0.0000000000000","CLASSIFICATION_TYPE":"U","BSTAR":"-0.00131510000000","REF_FRAME":"TEME","MEAN_MOTION_DOT":"-0.00021157","OBJECT_NAME":"STARLINK-3594"},{"BSTAR":"-0.00138990000000","CLASSIFICATION_TYPE":"U","REF_FRAME":"TEME","MEAN_MOTION_DOT":"-0.00022347","OBJECT_NAME":"STARLINK-3593","NORAD_CAT_ID":"51896","FILE":"3505610","CENTER_NAME":"EARTH","ECCENTRICITY":"0.00017070","PERIOD":"95.437","MEAN_MOTION_DDOT":"0.0000000000000","SITE":"AFETR","MEAN_MOTION":"15.08850257","OBJECT_ID":"2022-022AW","MEAN_ANOMALY":"109.8116","PERIAPSIS":"538.533","DECAY_DATE":null,"TLE_LINE2":"2 51896  53.2157 293.9812 0001707  49.0278 109.8116 15.08850257  1304","TLE_LINE1":"1 51896U 22022AW  22180.91667824 -.00022347  00000-0 -13899-2 0  9995","OBJECT_TYPE":"PAYLOAD","LAUNCH_DATE":"2022-03-03","TIME_SYSTEM":"UTC","RA_OF_ASC_NODE":"293.9812","COUNTRY_CODE":"US","ELEMENT_SET_NO":"999","EPHEMERIS_TYPE":"0","EPOCH":"2022-06-29T22:00:00.999936","APOAPSIS":"540.895","RCS_SIZE":"LARGE","INCLINATION":"53.2157","MEAN_ELEMENT_THEORY":"SGP4","ARG_OF_PERICENTER":"49.0278","GP_ID":"207121923","SEMIMAJOR_AXIS":"6917.849","REV_AT_EPOCH":"130"},{"REV_AT_EPOCH":"130","ARG_OF_PERICENTER":"65.3376","GP_ID":"207120172","SEMIMAJOR_AXIS":"6917.862","RCS_SIZE":"LARGE","INCLINATION":"53.2172","APOAPSIS":"540.698","MEAN_ELEMENT_THEORY":"SGP4","COUNTRY_CODE":"US","TIME_SYSTEM":"UTC","RA_OF_ASC_NODE":"293.9812","OBJECT_TYPE":"PAYLOAD","LAUNCH_DATE":"2022-03-03","EPOCH":"2022-06-29T22:00:00.999936","EPHEMERIS_TYPE":"0","ELEMENT_SET_NO":"999","DECAY_DATE":null,"PERIAPSIS":"538.757","MEAN_ANOMALY":"118.7427","OBJECT_ID":"2022-022AX","TLE_LINE1":"1 51897U 22022AX  22180.91667824 -.00021991  00000-0 -13676-2 0  9993","TLE_LINE2":"2 51897  53.2172 293.9812 0001403  65.3376 118.7427 15.08845900  1308","SITE":"AFETR","MEAN_MOTION":"15.08845900","FILE":"3505610","CENTER_NAME":"EARTH","NORAD_CAT_ID":"51897","MEAN_MOTION_DDOT":"0.0000000000000","PERIOD":"95.437","ECCENTRICITY":"0.00014030","REF_FRAME":"TEME","BSTAR":"-0.00136760000000","CLASSIFICATION_TYPE":"U","OBJECT_NAME":"STARLINK-3598","MEAN_MOTION_DOT":"-0.00021991"},{"MEAN_ANOMALY":"137.7380","OBJECT_ID":"2022-022AY","PERIAPSIS":"538.914","DECAY_DATE":null,"TLE_LINE2":"2 51898  53.2171 293.9813 0001125  66.3328 137.7380 15.08857437  1305","TLE_LINE1":"1 51898U 22022AY  22180.91667824 -.00023665  00000-0 -14730-2 0  9996","SITE":"AFETR","MEAN_MOTION":"15.08857437","CENTER_NAME":"EARTH","FILE":"3505610","NORAD_CAT_ID":"51898","ECCENTRICITY":"0.00011250","PERIOD":"95.436","MEAN_MOTION_DDOT":"0.0000000000000","BSTAR":"-0.00147300000000","CLASSIFICATION_TYPE":"U","REF_FRAME":"TEME","MEAN_MOTION_DOT":"-0.00023665","OBJECT_NAME":"STARLINK-3597","REV_AT_EPOCH":"130","ARG_OF_PERICENTER":"66.3328","SEMIMAJOR_AXIS":"6917.827","GP_ID":"207120422","APOAPSIS":"540.470","INCLINATION":"53.2171","RCS_SIZE":"LARGE","MEAN_ELEMENT_THEORY":"SGP4","OBJECT_TYPE":"PAYLOAD","LAUNCH_DATE":"2022-03-03","TIME_SYSTEM":"UTC","RA_OF_ASC_NODE":"293.9813","COUNTRY_CODE":"US","ELEMENT_SET_NO":"999","EPHEMERIS_TYPE":"0","EPOCH":"2022-06-29T22:00:00.999936"},{"SITE":"AFETR","MEAN_MOTION":"15.08826831","DECAY_DATE":null,"PERIAPSIS":"538.451","OBJECT_ID":"2022-025A","MEAN_ANOMALY":"31.5186","TLE_LINE1":"1 51956U 22025A   22180.91667824  .00022033  00000-0  13986-2 0  9992","TLE_LINE2":"2 51956  53.2168 324.0018 0001929  47.5639  31.5186 15.08826831  1306","REF_FRAME":"TEME","BSTAR":"0.00139860000000","CLASSIFICATION_TYPE":"U","MEAN_MOTION_DOT":"0.00022033","OBJECT_NAME":"STARLINK-3700","CENTER_NAME":"EARTH","FILE":"3505610","NORAD_CAT_ID":"51956","MEAN_MOTION_DDOT":"0.0000000000000","PERIOD":"95.438","ECCENTRICITY":"0.00019290","ARG_OF_PERICENTER":"47.5639","GP_ID":"207121426","SEMIMAJOR_AXIS":"6917.921","REV_AT_EPOCH":"130","COUNTRY_CODE":"US","TIME_SYSTEM":"UTC","RA_OF_ASC_NODE":"324.0018","OBJECT_TYPE":"PAYLOAD","LAUNCH_DATE":"2022-03-09","EPOCH":"2022-06-29T22:00:00.999936","EPHEMERIS_TYPE":"0","ELEMENT_SET_NO":"999","INCLINATION":"53.2168","RCS_SIZE":"LARGE","APOAPSIS":"541.120","MEAN_ELEMENT_THEORY":"SGP4"},{"SEMIMAJOR_AXIS":"6917.911","GP_ID":"207120676","ARG_OF_PERICENTER":"49.4167","REV_AT_EPOCH":"130","EPOCH":"2022-06-29T22:00:00.999936","ELEMENT_SET_NO":"999","EPHEMERIS_TYPE":"0","COUNTRY_CODE":"US","LAUNCH_DATE":"2022-03-09","OBJECT_TYPE":"PAYLOAD","TIME_SYSTEM":"UTC","RA_OF_ASC_NODE":"323.9965","MEAN_ELEMENT_THEORY":"SGP4","INCLINATION":"53.2156","RCS_SIZE":"LARGE","APOAPSIS":"540.970","SITE":"AFETR","MEAN_MOTION":"15.08829925","TLE_LINE1":"1 51957U 22025B   22180.91667824  .00023037  00000-0  14612-2 0  9995","TLE_LINE2":"2 51957  53.2156 323.9965 0001726  49.4167 129.6448 15.08829925  1302","PERIAPSIS":"538.582","DECAY_DATE":null,"OBJECT_ID":"2022-025B","MEAN_ANOMALY":"129.6448","OBJECT_NAME":"STARLINK-3694","MEAN_MOTION_DOT":"0.00023037","BSTAR":"0.00146120000000","CLASSIFICATION_TYPE":"U","REF_FRAME":"TEME","PERIOD":"95.438","MEAN_MOTION_DDOT":"0.0000000000000","ECCENTRICITY":"0.00017260","CENTER_NAME":"EARTH","FILE":"3505610","NORAD_CAT_ID":"51957"},{"APOAPSIS":"541.021","RCS_SIZE":"LARGE","INCLINATION":"53.2179","MEAN_ELEMENT_THEORY":"SGP4","OBJECT_TYPE":"PAYLOAD","LAUNCH_DATE":"2022-03-09","RA_OF_ASC_NODE":"324.0049","TIME_SYSTEM":"UTC","COUNTRY_CODE":"US","ELEMENT_SET_NO":"999","EPHEMERIS_TYPE":"0","EPOCH":"2022-06-29T22:00:00.999936","REV_AT_EPOCH":"130","ARG_OF_PERICENTER":"38.8121","GP_ID":"207120926","SEMIMAJOR_AXIS":"6917.855","FILE":"3505610","CENTER_NAME":"EARTH","NORAD_CAT_ID":"51958","ECCENTRICITY":"0.00018800","PERIOD":"95.437","MEAN_MOTION_DDOT":"0.0000000000000","BSTAR":"0.00145300000000","CLASSIFICATION_TYPE":"U","REF_FRAME":"TEME","OBJECT_NAME":"STARLINK-3692","MEAN_MOTION_DOT":"0.00022917","MEAN_ANOMALY":"60.2505","OBJECT_ID":"2022-025C","PERIAPSIS":"538.420","DECAY_DATE":null,"TLE_LINE2":"2 51958  53.2179 324.0049 0001880  38.8121  60.2505 15.08848154  1305","TLE_LINE1":"1 51958U 22025C   22180.91667824  .00022917  00000-0  14530-2 0  9991","SITE":"AFETR","MEAN_MOTION":"15.08848154"}];
